     2              NAVIGATION DATA                         RINEX VERSION / TYPE
CCRINEXN V1.6.0 UX  CDDIS               29-DEC-16 17:31     PGM / RUN BY / DATE 
IGS BROADCAST EPHEMERIS FILE                                COMMENT             
    0.7451D-08 -0.1490D-07 -0.5960D-07  0.1192D-06          ION ALPHA           
    0.9216D+05 -0.1147D+06 -0.1311D+06  0.7209D+06          ION BETA            
   -0.186264514923D-08-0.888178419700D-15   503808     1929 DELTA-UTC: A0,A1,T,W
    17                                                      LEAP SECONDS        
                                                            END OF HEADER       
32 16 12 28  7 59 44.0-0.258708838373D-03-0.153477230924D-10 0.000000000000D+00
    0.290000000000D+02-0.112187500000D+02 0.446982904346D-08-0.207751297607D+01
   -0.473111867905D-06 0.619102735072D-03 0.887364149094D-05 0.515367530823D+04
    0.287984000000D+06-0.298023223877D-07 0.232175008548D+01-0.130385160446D-07
    0.958460121380D+00 0.207968750000D+03-0.271845410730D+01-0.782032574796D-08
   -0.566452166435D-09 0.100000000000D+01 0.192900000000D+04 0.000000000000D+00
    0.200000000000D+01 0.000000000000D+00 0.465661287308D-09 0.290000000000D+02
    0.280800000000D+06 0.400000000000D+01 0.000000000000D+00 0.000000000000D+00
 1 16 12 28  8  0  0.0 0.450517982244D-04 0.125055521494D-11 0.000000000000D+00
    0.960000000000D+02-0.397187500000D+02 0.425482008748D-08 0.125250059737D+01
   -0.190362334251D-05 0.607261830010D-02 0.110324472189D-04 0.515370165825D+04
    0.288000000000D+06 0.279396772385D-07 0.239570718191D+00 0.139698386192D-06
    0.966493695050D+00 0.169281250000D+03 0.555338648061D+00-0.779746765297D-08
    0.351800368183D-09 0.100000000000D+01 0.192900000000D+04 0.000000000000D+00
    0.200000000000D+01 0.000000000000D+00 0.512227416039D-08 0.960000000000D+02
    0.285390000000D+06 0.400000000000D+01 0.000000000000D+00 0.000000000000D+00
 2 16 12 28  8  0  0.0 0.503249466419D-03-0.636646291241D-11 0.000000000000D+00
    0.590000000000D+02-0.464062500000D+02 0.458233372974D-08 0.170135750974D+01
   -0.258721411228D-05 0.163697501412D-01 0.112168490887D-04 0.515371059799D+04
    0.288000000000D+06-0.337138772011D-06 0.189432600845D+00-0.331550836563D-06
    0.945373681328D+00 0.160312500000D+03-0.204953990944D+01-0.797104631179D-08
    0.357514891930D-09 0.100000000000D+01 0.192900000000D+04 0.000000000000D+00
    0.200000000000D+01 0.000000000000D+00-0.200234353542D-07 0.590000000000D+02
    0.286470000000D+06 0.400000000000D+01 0.000000000000D+00 0.000000000000D+00
 3 16 12 28  8  0  0.0-0.104231759906D-03-0.125055521494D-11 0.000000000000D+00
    0.420000000000D+02 0.130312500000D+02 0.497020702907D-08-0.108073636329D+00
    0.625848770142D-06 0.412807799876D-03 0.524148344994D-05 0.515354216194D+04
    0.288000000000D+06 0.111758708954D-07 0.128140622015D+01 0.931322574616D-08
    0.959101605106D+00 0.275875000000D+03 0.866250841225D+00-0.815462538716D-08
    0.178578867098D-09 0.100000000000D+01 0.192900000000D+04 0.000000000000D+00
    0.290000000000D+01 0.000000000000D+00 0.186264514923D-08 0.420000000000D+02
    0.282660000000D+06 0.400000000000D+01 0.000000000000D+00 0.000000000000D+00
 4 16 12 28  8  0  0.0 0.277394428849D-05-0.119371179608D-10 0.000000000000D+00
    0.107000000000D+03-0.459062500000D+02 0.474912639161D-08 0.991548210854D+00
   -0.231899321079D-05 0.131816886133D-01 0.112839043140D-04 0.515370132065D+04
    0.288000000000D+06-0.216066837311D-06 0.203980501910D+00 0.931322574615D-07
    0.944550776743D+00 0.156218750000D+03 0.120670640460D+01-0.818141221723D-08
    0.346085844436D-09 0.100000000000D+01 0.192900000000D+04 0.000000000000D+00
    0.200000000000D+01 0.630000000000D+02-0.651925802231D-08 0.107000000000D+03
    0.280800000000D+06 0.400000000000D+01 0.000000000000D+00 0.000000000000D+00
 5 16 12 28  8  0  0.0-0.695372000337D-04 0.216004991671D-11 0.000000000000D+00
    0.580000000000D+02 0.157500000000D+02 0.522593213148D-08-0.209763372897D+01
    0.784173607826D-06 0.490922632162D-02 0.501610338688D-05 0.515364837265D+04
    0.288000000000D+06 0.558793544769D-07 0.126660404783D+01-0.335276126862D-07
    0.946111782016D+00 0.275843750000D+03 0.566712395789D+00-0.830356050585D-08
    0.230366739573D-09 0.100000000000D+01 0.192900000000D+04 0.000000000000D+00
    0.200000000000D+01 0.000000000000D+00-0.107102096081D-07 0.580000000000D+02
    0.280800000000D+06 0.000000000000D+00 0.000000000000D+00 0.000000000000D+00
 6 16 12 28  8  0  0.0 0.291764270514D-03 0.500222085975D-11 0.000000000000D+00
    0.800000000000D+02-0.350625000000D+02 0.412910056504D-08 0.167381644867D+01
   -0.187382102013D-05 0.464317039587D-03 0.107884407043D-04 0.515359539795D+04
    0.288000000000D+06-0.558793544769D-08 0.231186142196D+00-0.372529029846D-07
    0.966296043115D+00 0.173968750000D+03-0.148577590362D+01-0.768817738631D-08
    0.351443210449D-09 0.100000000000D+01 0.192900000000D+04 0.000000000000D+00
    0.200000000000D+01 0.000000000000D+00 0.419095158577D-08 0.800000000000D+02
    0.283290000000D+06 0.400000000000D+01 0.000000000000D+00 0.000000000000D+00
 8 16 12 28  8  0  0.0-0.439756549895D-04-0.136424205266D-11 0.000000000000D+00
    0.780000000000D+02-0.129406250000D+03 0.446697178159D-08-0.216715203204D+01
   -0.655278563499D-05 0.228660507128D-02 0.541843473911D-05 0.515356720161D+04
    0.288000000000D+06 0.558793544769D-08-0.822054232533D+00 0.521540641785D-07
    0.965449064749D+00 0.278281250000D+03-0.955598675561D+00-0.809212278368D-08
   -0.249296098469D-09 0.100000000000D+01 0.192900000000D+04 0.000000000000D+00
    0.290000000000D+01 0.000000000000D+00 0.512227416039D-08 0.780000000000D+02
    0.280800000000D+06 0.400000000000D+01 0.000000000000D+00 0.000000000000D+00
 9 16 12 28  8  0  0.0 0.272301491350D-03 0.738964445190D-11 0.000000000000D+00
    0.280000000000D+02-0.230625000000D+02 0.467090884782D-08-0.266328524582D+01
   -0.114366412163D-05 0.844838330522D-03 0.860169529915D-05 0.515371722221D+04
    0.288000000000D+06 0.000000000000D+00 0.231930523777D+01-0.651925802231D-07
    0.953919618650D+00 0.211562500000D+03 0.172283325833D+01-0.796176021070D-08
   -0.624668877109D-09 0.100000000000D+01 0.192900000000D+04 0.000000000000D+00
    0.200000000000D+01 0.000000000000D+00 0.139698386192D-08 0.280000000000D+02
    0.280818000000D+06 0.400000000000D+01 0.000000000000D+00 0.000000000000D+00
10 16 12 28  8  0  0.0-0.115396454930D-03 0.909494701773D-12 0.000000000000D+00
    0.620000000000D+02 0.943750000000D+01 0.489734685130D-08-0.776775082017D+00
    0.372529029846D-06 0.204466329887D-02 0.537931919098D-05 0.515366489220D+04
    0.288000000000D+06 0.949949026108D-07 0.127758611826D+01-0.465661287308D-07
    0.959301420698D+00 0.277312500000D+03-0.294952329944D+01-0.811140930133D-08
    0.917895376884D-10 0.100000000000D+01 0.192900000000D+04 0.000000000000D+00
    0.200000000000D+01 0.000000000000D+00 0.232830643654D-08 0.620000000000D+02
    0.280800000000D+06 0.400000000000D+01 0.000000000000D+00 0.000000000000D+00
11 16 12 28  8  0  0.0-0.669487286359D-03 0.216004991671D-11 0.000000000000D+00
    0.790000000000D+02-0.962500000000D+02 0.582202822513D-08 0.674189648694D+00
   -0.500120222569D-05 0.166568695568D-01 0.106487423181D-04 0.515369840431D+04
    0.288000000000D+06-0.238418579102D-06-0.152264611324D+00-0.745058059692D-07
    0.899520913320D+00 0.146968750000D+03 0.160901040515D+01-0.881465287996D-08
    0.108218793461D-09 0.100000000000D+01 0.192900000000D+04 0.000000000000D+00
    0.290000000000D+01 0.000000000000D+00-0.121071934700D-07 0.790000000000D+02
    0.282180000000D+06 0.400000000000D+01 0.000000000000D+00 0.000000000000D+00
13 16 12 28  8  0  0.0-0.622244551778D-04-0.193267624127D-11 0.000000000000D+00
    0.790000000000D+02-0.415625000000D+01 0.415410160643D-08 0.166273750819D+01
   -0.219792127609D-06 0.406209682114D-02 0.951066613197D-05 0.515368938446D+04
    0.288000000000D+06 0.949949026108D-07 0.244324046097D+01-0.204890966415D-07
    0.970240389172D+00 0.201468750000D+03 0.186246148757D+01-0.772889336800D-08
   -0.520378818724D-09 0.100000000000D+01 0.192900000000D+04 0.000000000000D+00
    0.200000000000D+01 0.000000000000D+00-0.111758708954D-07 0.790000000000D+02
    0.280800000000D+06 0.400000000000D+01 0.000000000000D+00 0.000000000000D+00
15 16 12 28  8  0  0.0-0.338793732226D-03-0.113686837722D-11 0.000000000000D+00
    0.380000000000D+02-0.233437500000D+02 0.520843123778D-08 0.259218235084D+01
   -0.127963721752D-05 0.898348551709D-02 0.811368227005D-05 0.515372205925D+04
    0.288000000000D+06-0.819563865662D-07 0.226144475039D+01-0.763684511185D-07
    0.929524810142D+00 0.208062500000D+03 0.553845004313D+00-0.818498379457D-08
   -0.561451958156D-09 0.100000000000D+01 0.192900000000D+04 0.000000000000D+00
    0.200000000000D+01 0.000000000000D+00-0.107102096081D-07 0.380000000000D+02
    0.280800000000D+06 0.400000000000D+01 0.000000000000D+00 0.000000000000D+00
16 16 12 28  8  0  0.0 0.210371799767D-04 0.136424205266D-11 0.000000000000D+00
    0.620000000000D+02 0.307812500000D+02 0.420481800469D-08-0.191207546623D+01
    0.133365392685D-05 0.892509799451D-02 0.642612576485D-06 0.515361794662D+04
    0.288000000000D+06 0.204890966415D-07-0.178610126146D+01-0.122934579849D-06
    0.990111255182D+00 0.382218750000D+03 0.382791474859D+00-0.814319633967D-08
    0.255724937684D-09 0.100000000000D+01 0.192900000000D+04 0.000000000000D+00
    0.200000000000D+01 0.000000000000D+00-0.102445483208D-07 0.620000000000D+02
    0.280800000000D+06 0.400000000000D+01 0.000000000000D+00 0.000000000000D+00
